satname,norad_id,inclination_deg,eccentricity,mean_motion_rev_per_day,perigee_km,apogee_km,l1,l2
STARLINK-1458,45675,53.0532,0.0007007,15.43305876,431.5855548685531,441.1353916275639,1 45675U 20035U   26069.32564489  .00075382  00000+0  16584-2 0  9991,2 45675  53.0532  52.4782 0007007  81.7456 278.4343 15.43305876318959
STARLINK-1460,45676,53.1569,0.0001378,15.29326689,476.8791080166757,478.7686108295329,1 45676U 20035V   26069.83334490  .00083262  00000+0  28681-2 0  9992,2 45676  53.1569  59.6017 0001378  88.7869 252.6530 15.29326689  5720
STARLINK-1392,45677,53.1581,0.000151,15.29345862,476.73131696775636,478.80179984239476,1 45677U 20035W   26069.24509845  .00000348  00000+0  24417-4 0  9995,2 45677  53.1581  62.1859 0001510  92.5979 267.5194 15.29345862318846
STARLINK-1394,45679,53.0507,0.0002863,15.50011208,414.7479538717389,418.63867370941534,1 45679U 20035Y   26069.32632633  .00129899  00000+0  22484-2 0  9991,2 45679  53.0507  33.5092 0002863 118.0636 242.0662 15.50011208319254
STARLINK-1402,45685,53.0484,9.33e-05,15.45100232,430.4482758898839,431.7188764493967,1 45685U 20035AE  26069.88387686  .00101087  00000+0  20844-2 0  9991,2 45685  53.0484  17.7102 0000933 193.5914 166.5067 15.45100232319534
STARLINK-1404,45686,53.1609,0.0001389,15.30196453,474.2737280689371,476.17759221592587,1 45686U 20035AF  26069.15307758 -.00000030  00000+0  11107-4 0  9995,2 45686  53.1609  47.5475 0001389 108.2357 251.8795 15.30196453319045
STARLINK-1413,45689,53.1616,0.0001216,15.30189525,474.41297464473246,476.0797174744939,1 45689U 20035AJ  26069.22470332 -.00000660  00000+0 -10157-4 0  9999,2 45689  53.1616  47.0921 0001216  91.1032 269.0108 15.30189525318978
STARLINK-1417,45693,53.0516,0.0002081,15.12616682,526.7863946905127,529.6608219757018,1 45693U 20035AN  26069.32482181  .00047391  00000+0  26813-2 0  9994,2 45693  53.0516  51.4322 0002081 231.3671 128.7135 15.12616682318995
STARLINK-1420,45695,53.0539,0.0004211,15.53915164,402.45143954507694,408.16445688046133,1 45695U 20035AQ  26069.83579703  .00123688  00000+0  18630-2 0  9991,2 45695  53.0539  16.8863 0004211 113.6726 246.4726 15.53915164319534
STARLINK-1422,45696,53.1603,0.000121,15.30187656,474.42266656595166,476.081186686195,1 45696U 20035AR  26069.29738700 -.00001182  00000+0 -27808-4 0  9991,2 45696  53.1603  46.7591 0001210  98.0353 262.0785 15.30187656319065
STARLINK-1351,45697,53.0527,0.0003819,15.52652505,406.393101901981,411.5771057648899,1 45697U 20035AS  26069.87788220  .00104219  00000+0  16484-2 0  9997,2 45697  53.0527  15.9033 0003819 128.5803 231.5548 15.52652505319551
STARLINK-1398,45699,53.034,0.0004048,15.96592068,281.1851555717767,286.57872610628056,1 45699U 20035AU  26069.83334490  .00329649  54803-4  76614-3 0  9994,2 45699  53.0340 293.3142 0004048 205.4853 165.8036 15.96592068  5923
STARLINK-1400,45700,53.0513,0.0007903,15.50780999,409.07636342968453,419.81271781279156,1 45700U 20035AV  26069.84823242  .00121276  00000+0  20435-2 0  9996,2 45700  53.0513  17.3952 0007903  98.8303 261.3600 15.50780999319523
STARLINK-1403,45701,53.1178,0.0002054,15.20874927,501.7867965992318,504.6136499305485,1 45701U 20035AW  26069.83334490  .01871986  00000+0  75907-1 0  9992,2 45701  53.1178  31.0924 0002054  82.6127 300.7992 15.20874927  5718
STARLINK-1407,45703,53.0346,0.0010394,15.6017658,380.11473594280596,394.17840743163015,1 45703U 20035AY  26069.83334490  .00124611  00000+0  14834-2 0  9992,2 45703  53.0346 310.1907 0010394 110.3206 145.4958 15.60176580  5979
STARLINK-1411,45706,53.0445,0.000525,15.62366435,377.27503694920597,384.3719454649736,1 45706U 20035BB  26069.83334490  .00116763  00000+0  12813-2 0  9999,2 45706  53.0445 335.8461 0005250 135.5877 158.9525 15.62366435  5981
STARLINK-1423,45710,53.0505,0.0007862,15.53110901,402.3145869774007,412.9845577838123,1 45710U 20035BF  26069.83334490  .00130675  00000+0  20226-2 0  9999,2 45710  53.0505  16.5007 0007862 115.4822 350.1327 15.53110901  5947
STARLINK-1433,45711,53.051,0.000759,15.55046522,396.87126184029603,407.16353621802136,1 45711U 20035BG  26069.83782559  .00141644  00000+0  20400-2 0  9995,2 45711  53.0510  15.5066 0007590 106.3149 253.8696 15.55046522319548
STARLINK-1434,45712,53.0543,0.0005532,15.26936573,481.17975012183433,488.773098814665,1 45712U 20035BH  26069.87784169  .00065488  00000+0  24340-2 0  9997,2 45712  53.0543  14.5297 0005532  94.4684 265.6946 15.26936573319579
STARLINK-1465,45731,53.0528,0.0003174,15.50155259,414.1158137540515,418.42890481532504,1 45731U 20038B   26069.61216335  .00085000  00000+0  14749-2 0  9992,2 45731  53.0528 218.7371 0003174 269.6421  90.4223 15.50155259316524
STARLINK-1471,45735,53.0457,7.25e-05,15.48948696,419.30741522551216,420.2931161290353,1 45735U 20038F   26069.48513072  .00030118  00000+0  55438-3 0  9990,2 45735  53.0457 138.2131 0000725 262.3931  97.6994 15.48948696317655
STARLINK-1480,45741,53.0509,0.0006748,15.47705023,418.8517708045629,428.03118111571894,1 45741U 20038M   26069.82835399  .00032327  00000+0  62013-3 0  9995,2 45741  53.0509 211.8070 0006748 183.3890 176.7072 15.47705023316656
STARLINK-1500,45744,53.0377,0.0001865,15.34866998,460.0400177733736,462.59113358410195,1 45744U 20038Q   26069.58931588  .00032763  00000+0  96213-3 0  9991,2 45744  53.0377 188.5330 0001865 262.2079  97.8711 15.34866998316953
STARLINK-1504,45746,53.0224,2.71e-05,15.53236774,407.0990729288096,407.46684269052366,1 45746U 20038S   26069.45883609  .00037874  00000+0  59627-3 0  9995,2 45746  53.0224 138.4758 0000271 171.1163 188.9851 15.53236774317633
STARLINK-1506,45747,53.0744,0.0002421,15.26280298,485.28159680742283,488.60566884983837,1 45747U 20038T   26069.77352217  .00048590  00000+0  18502-2 0  9990,2 45747  53.0744 197.3516 0002421 231.4398 128.6383 15.26280298316850
STARLINK-1464,45751,53.0505,0.0002358,15.44327199,431.7495324218571,434.9618323708755,1 45751U 20038X   26069.73228378  .00095671  00000+0  20271-2 0  9999,2 45751  53.0505 199.6678 0002358 281.0981  78.9759 15.44327199316814
STARLINK-1477,45754,53.0498,6.76e-05,15.14471709,522.1163838523244,523.049361179088,1 45754U 20038AA  26069.82122085  .00050113  00000+0  26899-2 0  9994,2 45754  53.0498 207.8218 0000676  37.1993 322.9046 15.14471709316707
STARLINK-1478,45755,53.051,0.0003565,15.55280085,398.9216959854857,403.75546207333446,1 45755U 20038AB  26069.59729263  .00113607  00000+0  16307-2 0  9991,2 45755  53.0510 193.5001 0003565 248.3228 111.7403 15.55280085316870
STARLINK-1484,45756,52.9971,0.0005312,16.05194903,256.53159888955906,263.58401705354754,1 45756U 20038AC  26069.95321692  .00633027  20533-3  88975-3 0  9997,2 45756  52.9971  49.9789 0005312  81.0635 279.0997 16.05194903318904
STARLINK-1493,45759,53.0522,0.0002063,15.50481812,413.91683798655686,416.7198176548163,1 45759U 20038AF  26069.86809831  .00108634  00000+0  18557-2 0  9998,2 45759  53.0522 198.8445 0002063  29.9806 330.1320 15.50481812316820
STARLINK-1494,45760,53.0479,0.0005846,15.73931726,343.74089002126857,351.60470683759377,1 45760U 20038AG  26069.51320060  .00107518  00000+0  73653-3 0  9993,2 45760  53.0479 147.5275 0005846   5.8988 354.2098 15.73931726317527
STARLINK-1502,45764,53.0504,0.0002103,15.47326798,423.11920056371946,425.9804106341535,1 45764U 20038AL  26069.59089436  .00105489  00000+0  20135-2 0  9995,2 45764  53.0504 201.7386 0002103   7.6715 352.4324 15.47326798316773
STARLINK-1470,45772,53.0473,0.0002109,15.28179758,479.8071466879992,482.700437724151,1 45772U 20038AU  26069.58996579  .00053262  00000+0  19123-2 0  9994,2 45772  53.0473 170.1419 0002109  12.4237 347.6813 15.28179758317212
STARLINK-1482,45773,53.1615,0.0001267,15.30194023,474.3645937537294,476.10123769037455,1 45773U 20038AV  26069.72604127  .00001190  00000+0  52315-4 0  9991,2 45773  53.1615 186.2037 0001267  89.9992 270.1154 15.30194023317007
STARLINK-1496,45780,53.0507,0.0003081,15.48460799,419.1332590121983,423.32302781357066,1 45780U 20038BC  26069.83334490  .00086838  00000+0  15986-2 0  9997,2 45780  53.0507 172.3492 0003081 220.1791 304.9877 15.48460799  5925
STARLINK-1513,45786,53.1618,7.9e-05,15.30192624,474.6956763609169,475.77850946759736,1 45786U 20038BJ  26069.73553193 -.00002244  00000+0 -63688-4 0  9990,2 45786  53.1618 186.2919 0000790  60.6929 299.4150 15.30192624317004
STARLINK-1522,46027,53.0632,0.0001743,15.09125466,537.665336661772,540.0766056405155,1 46027U 20055A   26069.41016538  .00017919  00000+0  11322-2 0  9999,2 46027  53.0632 123.2332 0001743  66.9223 293.1951 15.09125466308997
STARLINK-1523,46028,53.1099,0.0001223,15.19869403,505.3929932974397,507.07691067689484,1 46028U 20055B   26069.83334490  .00051832  00000+0  23835-2 0  9990,2 46028  53.1099 121.0172 0001223  90.1429 141.7465 15.19869403  5814
STARLINK-1526,46029,53.1109,8.83e-05,15.20061629,505.0467055090403,506.26238309576456,1 46029U 20055C   26069.83334490  .00046525  00000+0  21306-2 0  9995,2 46029  53.1109 120.9845 0000883 121.8018 168.4008 15.20061629  5825
STARLINK-1555,46032,53.1098,9.38e-05,15.19725143,506.0248164201521,507.31640632804556,1 46032U 20055F   26069.83334490  .00058948  00000+0  27174-2 0  9990,2 46032  53.1098 121.0687 0000938  99.7300 223.7801 15.19725143  5776
STARLINK-1556,46033,53.1148,0.0001582,15.20211886,504.111999038877,506.28988716407457,1 46033U 20055G   26069.83334490  .00632827  00000+0  27089-1 0  9999,2 46033  53.1148 120.9950 0001582  80.5495  23.3807 15.20211886  5814
STARLINK-1557,46034,53.1183,0.0001597,15.209616,501.8398879502729,504.03770355943743,1 46034U 20055H   26069.83334490  .00622195  00000+0  25798-1 0  9992,2 46034  53.1183 120.9254 0001597  80.1256  42.1708 15.20961600  5778
STARLINK-1558,46035,53.111,6.5e-05,15.19664941,506.40491505874525,507.299963685864,1 46035U 20055J   26069.83334490  .01121866  00000+0  47909-1 0  9991,2 46035  53.1110 121.0818 0000650  66.8935 289.0885 15.19664941  5775
